{
    "links": {
        "self": "http://www.neowsapp.com/rest/v1/neo/3789675?api_key=iIulBulltgU6a56xZRHN4H3l9WmuAYTsLGpBGhQ2"
    },
    "id": "3789675",
    "neo_reference_id": "3789675",
    "name": "(2017 WE15)",
    "designation": "2017 WE15",
    "nasa_jpl_url": "http://ssd.jpl.nasa.gov/sbdb.cgi?sstr=3789675",
    "absolute_magnitude_h": 24.5,
    "estimated_diameter": {
        "kilometers": {
            "estimated_diameter_min": 0.0334622374,
            "estimated_diameter_max": 0.0748238376
        },
        "meters": {
            "estimated_diameter_min": 33.4622374455,
            "estimated_diameter_max": 74.8238376074
        },
        "miles": {
            "estimated_diameter_min": 0.0207924639,
            "estimated_diameter_max": 0.0464933628
        },
        "feet": {
            "estimated_diameter_min": 109.7842471007,
            "estimated_diameter_max": 245.4850393757
        }
    },
    "is_potentially_hazardous_asteroid": false,
    "close_approach_data": [
        {
            "close_approach_date": "2017-11-22",
            "close_approach_date_full": "2017-Nov-22 12:39",
            "epoch_date_close_approach": 1511354340000,
            "relative_velocity": {
                "kilometers_per_second": "14.2877436123",
                "kilometers_per_hour": "51435.8770043459",
                "miles_per_hour": "31960.2536863948"
            },
            "miss_distance": {
                "astronomical": "0.1021184859",
                "lunar": "39.7240910151",
                "kilometers": "15276707.978265033",
                "miles": "9492506.1643341354"
            },
            "orbiting_body": "Earth"
        }
    ],
    "orbital_data": {
        "orbit_id": "1",
        "orbit_determination_date": "2017-11-26 17:42:12",
        "first_observation_date": "2017-11-24",
        "last_observation_date": "2017-11-26",
        "data_arc_in_days": 2,
        "observations_used": 32,
        "orbit_uncertainty": "8",
        "minimum_orbit_intersection": ".0805043",
        "jupiter_tisserand_invariant": "5.239",
        "epoch_osculation": "2458082.5",
        "eccentricity": ".09801847398968791",
        "semi_major_axis": "1.184332091228981",
        "inclination": "27.10066748417216",
        "ascending_node_longitude": "59.73555702585836",
        "orbital_period": "470.7698843772581",
        "perihelion_distance": "1.0682456669497",
        "perihelion_argument": "359.0071705875912",
        "aphelion_distance": "1.300418515508261",
        "perihelion_time": "2458082.289640347487",
        "mean_anomaly": ".1608630403468908",
        "mean_motion": ".7647048206497189",
        "equinox": "J2000",
        "orbit_class": {
            "orbit_class_type": "AMO",
            "orbit_class_description": "Near-Earth asteroid orbits similar to that of 1221 Amor",
            "orbit_class_range": "1.017 AU < q (perihelion) < 1.3 AU"
        }
    },
    "is_sentry_object": false
}